FORMOSAT 7-3
1 44343U 19036E   26202.48111421  .00003638  00000+0  19721-3 0  9993
2 44343  23.9996 302.4695 0000568  14.9916 345.0604 15.10025564388433
